#dP2019  5 24  0  0  0.00000000      96 __u+U IGS08 FIT  IAC
## 2054 432000.00000000   900.00000000 58627 0.0000000000000
+   95   C01C02C03C04C05C06C07C08C10C11C12C13C14C16E01E02E03
+        E04E05E07E08E09E11E12E13E14E15E18E19E21E24E25E26E27
+        E30E31E33E36G01G02G03G05G06G07G08G09G10G11G12G13G14
+        G15G16G17G18G19G20G21G22G23G24G25G26G27G28G29G30G31
+        G32J01J02J03R01R02R03R04R05R07R08R09R10R11R13R14R15
+        R16R17R18R19R20R21R22R23R24R26  0  0  0  0  0  0  0
++        13 12 13 13 13  8  8  8  8  7  7  8  7  8  5  4  5
++         4  4  4  4  4  4  4  4  4  5  5  5  4  4  4  5  4
++         4  5  5  5  3  3  3  3  3  3  3  3  3  3  3  3  3
++         3  3  3  3  3  3  3  3  3  3  3  3  3  3  3  3  3
++         3  8  8  8  5  5  5  5  5  5  5  5  5  5  6  5  5
++         6  5  5  6  6  5  5  5  6  8  0  0  0  0  0  0  0
%c M  cc GPS ccc cccc cccc cccc cccc ccccc ccccc ccccc ccccc
%c cc cc ccc ccc cccc cccc cccc cccc ccccc ccccc ccccc ccccc
%f  1.2500000  1.025000000  0.00000000000  0.000000000000000
%f  0.0000000  0.000000000  0.00000000000  0.000000000000000
%i    0    0    0    0      0      0      0      0         0
%i    0    0    0    0      0      0      0      0         0
/* INFORMATION & ANALYSIS CENTER (IAC)            FINAL DATA
/* S/V CLOCKS ARE ALIGNED TO GPS & GLONASS TIME RESPECTIVELY
/* USING THE BROADCAST EPHEMERIS                            
/* PCV:IGS14_2045 OL/AL:FES2004  NONE     YN ORB:CoN CLK:CoN
*  2019 05 24 21 15  0.00000000
PC01 -32300.308237  27124.048896   -266.257740    626.185456
PC02   4445.577019  41915.530927   -501.032391    139.301570
PC03 -14729.306589  39508.207324   -632.329019    390.741012
PC04 -39605.851254  14472.553121   -381.714746   -215.366762
PC05  21940.780763  36014.839433   -298.467602   -166.659587
PC06 -23366.162266  24634.256660  25103.299979    890.536677
PC07 -16194.229445  37884.394904  10185.467051    -34.530161
PC08  -6841.697532  22804.834494 -34672.048320    160.390566
PC10  -5224.716917  41832.723900  -4248.379974   -781.760561
PC11  26559.136205   7343.893864  -4170.700889    313.767703
PC12   3094.415884  15728.956548 -22772.282440    698.469693
PC13   7613.545534  31681.411132 -26588.174279   -733.539469
PC14  10610.475341  12316.813446  22748.628546    598.233501
PC16 -19699.048876  25170.082669  27441.892440   -818.777061
PE01 -14953.792814 -10742.423707  23171.485364   -611.663990
PE02  14972.017389  10681.388256 -23196.230171     61.727662
PE03  22915.203238   2686.041134  18544.582384   -169.744284
PE04 -26743.648542  12475.034374  -2298.247010   -288.636943
PE05   5627.165313  16369.462279  24020.998841   -481.093002
PE07  14877.599694 -20410.284992 -15413.445440   -193.986149
PE08  26615.826322 -12743.552930   2243.850530   6350.855263
PE09 -14731.041467  20469.576162  15522.874300   6429.641362
PE11  -4183.655763  16364.401535 -24315.235287   5689.645685
PE12 -21882.676500   2145.975169 -19803.041266   6380.186972
PE13   4259.627285 -16219.703987  24394.393011    387.526025
PE14 -19048.932226  16446.935879 -17978.047406   -579.292430
PE15  21647.840310  -2470.630905  20046.254521    909.284812
PE18  24053.266893  -7185.461469   6719.388381   -676.545077
PE19 -21655.379732  -4086.489116 -19748.500894     -6.214798
PE21  -5910.659805 -27182.578183  10101.650203   -535.610210
PE24  -6564.386721  27572.248520   8497.164822   6064.230936
PE25   5877.122562  27216.957206 -10052.059542   1794.335806
PE26 -15482.433969 -20727.575894  14381.996514   4531.953377
PE27   6605.549967 -27463.487323  -8847.442064    463.226683
PE30  15274.844389 -11838.826743 -22434.488092   4845.460222
PE31 -15220.613327  11637.365793  22567.557228   -465.032573
PE33 -26404.479809 -12768.492587  -3939.613391   -470.115480
PE36  15702.445188  20515.631720 -14452.267371    708.171952
PG01  20167.099537  10605.883910  13730.802268    -24.152771
PG02 -13433.141088 -22128.231537   6898.755705   -221.058958
PG03  15539.379513   1305.040194  21453.003509    187.396094
PG05  -5293.999039 -20096.295818 -16541.145669      0.810971
PG06  -2058.949681 -20612.637386  16645.221663    196.758218
PG07  16087.536597  -3128.099146 -20732.066333    -30.770966
PG08  21360.000181   6555.978949 -14487.590210   -144.802491
PG09  24340.841751  -8574.623195  -6345.713733    405.103705
PG10 -11177.886143  23836.150125  -2504.501499     36.862586
PG11  24598.773195   8513.417863   4022.860819   -599.708847
PG12 -14357.821970  -3665.445011  21813.861091    239.478657
PG13 -13303.370554 -12865.311985 -19178.107496    -62.203994
PG14  -2974.721155  15433.365502  21713.149069    -79.084629
PG15 -22692.238599  -4826.911324 -13535.391675   -311.124359
PG16   3447.907075  19507.881377 -17657.237476    -42.631387
PG17  12445.011263 -14003.879297  19198.210767     60.180806
PG18  19708.879315  17051.339442   4983.399402     56.080819
PG19   4792.681459 -14546.336467  21406.933041   -315.013448
PG20 -14181.626807  18919.126506 -12049.613923    524.942038
PG21 -11806.080082   9436.315920 -21045.696852   -186.408142
PG22  13574.420139   9454.387906  21026.582415   -706.267306
PG23  26145.721714     59.252790   6103.390411   -184.800653
PG24 -21158.995944 -12411.725698  10433.031835    -66.513668
PG25 -16896.640201  10282.741378  17389.410006   -759.459577
PG26  -2667.835193  24947.352370  -8456.738929    209.731182
PG27  10758.628017  12607.303258 -20931.163003   -140.115137
PG28  13063.467029 -23034.806929  -2019.602211    767.789558
PG29 -26182.428444   3805.782660  -2418.240150    193.535337
PG30   8490.816645 -14076.209570 -20804.586661   -110.809233
PG31   2505.309459  21279.869803  15398.487454     35.888445
PG32 -10035.151685  15322.015474  19251.089700    -73.206111
PJ01 -26543.333360  32368.693660   -697.630990   -299.652672
PJ02 -24100.627647  26265.467268  27377.994929      0.014847
PJ03 -33663.908141  17876.320249 -13301.871420      0.320903
PR01  20449.906896 -11939.071801   9469.131583     44.280252
PR02  13838.070594 -18490.407663 -10841.386130    370.161635
PR03  -1101.563914 -12855.169940 -21965.708086     -4.353010
PR04 -15662.097565    794.679077 -20090.042236    307.505562
PR05 -20599.688702  13195.528609  -7175.032582     28.734782
PR07   1663.141467  12510.412585  22202.279136    -20.596791
PR08  15230.831231   -123.941211  20521.800341     17.587893
PR09   -790.925845  23388.316537  10245.797530     71.439561
PR10   6557.539066  24173.297907  -5078.290137     50.555015
PR11  11712.481004  11091.901893 -19765.876392    -67.189204
PR13   1385.372917 -22457.954955 -12030.007213    -24.045680
PR14  -6879.738006 -24006.470019   5168.517198     39.265546
PR15 -11487.242446 -11937.980235  19412.850703    102.138775
PR16  -9528.356776   7313.158637  22463.718690      9.218456
PR17 -12726.064750 -13217.746702  17741.052737    230.316351
PR18 -23361.571265  -9777.116069   2773.203044     -5.693124
PR19 -21426.685407  -1655.529336 -13740.427139    -32.416895
PR20  -5765.820542   8908.463966 -23188.577093   -379.126673
PR21  13284.496612  13157.763173 -17343.030537    -49.948017
PR22  24021.700159   8785.644279      4.239697    -20.737300
PR23  18291.868213  -1810.937864  17679.718621    230.041628
PR24   3833.131408  -9740.641443  23233.938853   -180.800914
PR26  -8431.925608   7845.325573 -22752.310356    -10.578307
EOF
